ONEWEB-0399             
1 50479U 21132L   25308.27466741 -.00000413  00000+0 -11999-2 0  9999
2 50479  87.8849  65.8535 0001062 100.4515 259.6733 13.11414503186124
ONEWEB-0400             
1 50480U 21132M   25308.18669439  .00000036  00000+0  58042-4 0  9991
2 50480  87.9228  20.1281 0001940  96.2136 263.9217 13.18687072191958
ONEWEB-0401             
1 50481U 21132N   25308.23124082  .00000071  00000+0  14727-3 0  9998
2 50481  87.9224  20.1164 0001795 107.0421 253.0908 13.18686701191967
ONEWEB-0402             
1 50482U 21132P   25308.27082315  .00000008  00000+0 -13468-4 0  9998
2 50482  87.9225  20.1011 0001922 120.8581 239.2741 13.18686473191992
ONEWEB-0403             
1 50483U 21132Q   25308.21968831  .00000063  00000+0  12685-3 0  9998
2 50483  87.9226  20.1321 0001733  97.8011 262.3318 13.18686718191943
ONEWEB-0404             
1 50484U 21132R   25308.02714430  .00000219  00000+0  58328-3 0  9999
2 50484  87.8841  65.9107 0001299  91.2041 268.9236 13.11416021186185
ONEWEB-0405             
1 50485U 21132S   25308.15865906  .00000083  00000+0  17655-3 0  9996
2 50485  87.9229  20.1284 0001660 109.8117 250.3194 13.18686165192335
ONEWEB-0406             
1 50486U 21132T   25308.22464031  .00000025  00000+0  31741-4 0  9998
2 50486  87.9228  20.1395 0001694  83.5552 276.5773 13.18687313191974
ONEWEB-0407             
1 50487U 21132U   25308.21804146  .00000109  00000+0  24363-3 0  9997
2 50487  87.9225  20.1244 0001939 103.2390 256.8959 13.18686380191911
ONEWEB-0409             
1 50488U 21132V   25308.02544833  .00000318  00000+0  86266-3 0  9993
2 50488  87.8866  65.8747 0001478  87.0604 273.0693 13.11413232186075
ONEWEB-0412             
1 50489U 21132W   25308.20648159  .00000069  00000+0  14160-3 0  9997
2 50489  87.9229  20.1398 0001809 112.7875 247.3448 13.18686581192008
ONEWEB-0413             
1 50490U 21132X   25308.21143997  .00000037  00000+0  61381-4 0  9993
2 50490  87.9220  20.1554 0001952 110.7893 249.3448 13.18687007191940
ONEWEB-0414             
1 50491U 21132Y   25308.19659401 -.00000099  00000+0 -28431-3 0  9991
2 50491  87.9230  20.1180 0001710 106.2958 253.8362 13.18687885191973
ONEWEB-0417             
1 50492U 21132Z   25308.20484331  .00000044  00000+0  79502-4 0  9996
2 50492  87.9233  20.1500 0001673  94.8355 265.2969 13.18687494191958
ONEWEB-0418             
1 50493U 21132AA  25308.29048568 -.00000025  00000+0 -96674-4 0  9994
2 50493  87.9228  20.1179 0001522  87.1415 272.9891 13.18686481192023
ONEWEB-0419             
1 50494U 21132AB  25308.15700832  .00000078  00000+0  16633-3 0  9991
2 50494  87.9229  20.1445 0001850  90.7806 269.3538 13.18686485191929
ONEWEB-0420             
1 50495U 21132AC  25308.27412286  .00000017  00000+0  99806-5 0  9996
2 50495  87.9229  20.1325 0002099 107.9572 252.1790 13.18686926191935
