[{"OBJECT_NAME":"ONEWEB-0399","OBJECT_ID":"2021-132L","EPOCH":"2025-11-04T06:35:31.264224","MEAN_MOTION":13.11414503,"ECCENTRICITY":0.00010627,"INCLINATION":87.8849,"RA_OF_ASC_NODE":65.8535,"ARG_OF_PERICENTER":100.4515,"MEAN_ANOMALY":259.6733,"EPHEMERIS_TYPE":0,"CLASSIFICATION_TYPE":"U","NORAD_CAT_ID":50479,"ELEMENT_SET_NO":999,"REV_AT_EPOCH":18612,"BSTAR":-0.001199939,"MEAN_MOTION_DOT":-4.13e-6,"MEAN_MOTION_DDOT":0},{"OBJECT_NAME":"ONEWEB-0400","OBJECT_ID":"2021-132M","EPOCH":"2025-11-04T04:28:50.395296","MEAN_MOTION":13.18687072,"ECCENTRICITY":0.00019406,"INCLINATION":87.9228,"RA_OF_ASC_NODE":20.1281,"ARG_OF_PERICENTER":96.2136,"MEAN_ANOMALY":263.9217,"EPHEMERIS_TYPE":0,"CLASSIFICATION_TYPE":"U","NORAD_CAT_ID":50480,"ELEMENT_SET_NO":999,"REV_AT_EPOCH":19195,"BSTAR":5.8041829e-5,"MEAN_MOTION_DOT":3.6e-7,"MEAN_MOTION_DDOT":0},{"OBJECT_NAME":"ONEWEB-0401","OBJECT_ID":"2021-132N","EPOCH":"2025-11-04T05:32:59.206848","MEAN_MOTION":13.18686701,"ECCENTRICITY":0.00017952,"INCLINATION":87.9224,"RA_OF_ASC_NODE":20.1164,"ARG_OF_PERICENTER":107.0421,"MEAN_ANOMALY":253.0908,"EPHEMERIS_TYPE":0,"CLASSIFICATION_TYPE":"U","NORAD_CAT_ID":50481,"ELEMENT_SET_NO":999,"REV_AT_EPOCH":19196,"BSTAR":0.00014726946,"MEAN_MOTION_DOT":7.1e-7,"MEAN_MOTION_DDOT":0},{"OBJECT_NAME":"ONEWEB-0402","OBJECT_ID":"2021-132P","EPOCH":"2025-11-04T06:29:59.120160","MEAN_MOTION":13.18686473,"ECCENTRICITY":0.00019222,"INCLINATION":87.9225,"RA_OF_ASC_NODE":20.1011,"ARG_OF_PERICENTER":120.8581,"MEAN_ANOMALY":239.2741,"EPHEMERIS_TYPE":0,"CLASSIFICATION_TYPE":"U","NORAD_CAT_ID":50482,"ELEMENT_SET_NO":999,"REV_AT_EPOCH":19199,"BSTAR":-1.3468205e-5,"MEAN_MOTION_DOT":8.0e-8,"MEAN_MOTION_DDOT":0},{"OBJECT_NAME":"ONEWEB-0403","OBJECT_ID":"2021-132Q","EPOCH":"2025-11-04T05:16:21.069984","MEAN_MOTION":13.18686718,"ECCENTRICITY":0.0001733,"INCLINATION":87.9226,"RA_OF_ASC_NODE":20.1321,"ARG_OF_PERICENTER":97.8011,"MEAN_ANOMALY":262.3318,"EPHEMERIS_TYPE":0,"CLASSIFICATION_TYPE":"U","NORAD_CAT_ID":50483,"ELEMENT_SET_NO":999,"REV_AT_EPOCH":19194,"BSTAR":0.0001268454,"MEAN_MOTION_DOT":6.3e-7,"MEAN_MOTION_DDOT":0},{"OBJECT_NAME":"ONEWEB-0404","OBJECT_ID":"2021-132R","EPOCH":"2025-11-04T00:39:05.267520","MEAN_MOTION":13.11416021,"ECCENTRICITY":0.00012992,"INCLINATION":87.8841,"RA_OF_ASC_NODE":65.9107,"ARG_OF_PERICENTER":91.2041,"MEAN_ANOMALY":268.9236,"EPHEMERIS_TYPE":0,"CLASSIFICATION_TYPE":"U","NORAD_CAT_ID":50484,"ELEMENT_SET_NO":999,"REV_AT_EPOCH":18618,"BSTAR":0.00058327675,"MEAN_MOTION_DOT":2.19e-6,"MEAN_MOTION_DDOT":0},{"OBJECT_NAME":"ONEWEB-0405","OBJECT_ID":"2021-132S","EPOCH":"2025-11-04T03:48:28.142784","MEAN_MOTION":13.18686165,"ECCENTRICITY":0.00016601,"INCLINATION":87.9229,"RA_OF_ASC_NODE":20.1284,"ARG_OF_PERICENTER":109.8117,"MEAN_ANOMALY":250.3194,"EPHEMERIS_TYPE":0,"CLASSIFICATION_TYPE":"U","NORAD_CAT_ID":50485,"ELEMENT_SET_NO":999,"REV_AT_EPOCH":19233,"BSTAR":0.0001765514,"MEAN_MOTION_DOT":8.3e-7,"MEAN_MOTION_DDOT":0},{"OBJECT_NAME":"ONEWEB-0406","OBJECT_ID":"2021-132T","EPOCH":"2025-11-04T05:23:28.922784","MEAN_MOTION":13.18687313,"ECCENTRICITY":0.00016941,"INCLINATION":87.9228,"RA_OF_ASC_NODE":20.1395,"ARG_OF_PERICENTER":83.5552,"MEAN_ANOMALY":276.5773,"EPHEMERIS_TYPE":0,"CLASSIFICATION_TYPE":"U","NORAD_CAT_ID":50486,"ELEMENT_SET_NO":999,"REV_AT_EPOCH":19197,"BSTAR":3.1741168e-5,"MEAN_MOTION_DOT":2.5e-7,"MEAN_MOTION_DDOT":0},{"OBJECT_NAME":"ONEWEB-0407","OBJECT_ID":"2021-132U","EPOCH":"2025-11-04T05:13:58.782144","MEAN_MOTION":13.1868638,"ECCENTRICITY":0.00019398,"INCLINATION":87.9225,"RA_OF_ASC_NODE":20.1244,"ARG_OF_PERICENTER":103.239,"MEAN_ANOMALY":256.8959,"EPHEMERIS_TYPE":0,"CLASSIFICATION_TYPE":"U","NORAD_CAT_ID":50487,"ELEMENT_SET_NO":999,"REV_AT_EPOCH":19191,"BSTAR":0.0002436343,"MEAN_MOTION_DOT":1.09e-6,"MEAN_MOTION_DDOT":0},{"OBJECT_NAME":"ONEWEB-0409","OBJECT_ID":"2021-132V","EPOCH":"2025-11-04T00:36:38.735712","MEAN_MOTION":13.11413232,"ECCENTRICITY":0.00014785,"INCLINATION":87.8866,"RA_OF_ASC_NODE":65.8747,"ARG_OF_PERICENTER":87.0604,"MEAN_ANOMALY":273.0693,"EPHEMERIS_TYPE":0,"CLASSIFICATION_TYPE":"U","NORAD_CAT_ID":50488,"ELEMENT_SET_NO":999,"REV_AT_EPOCH":18607,"BSTAR":0.00086265696,"MEAN_MOTION_DOT":3.18e-6,"MEAN_MOTION_DDOT":0},{"OBJECT_NAME":"ONEWEB-0412","OBJECT_ID":"2021-132W","EPOCH":"2025-11-04T04:57:20.009376","MEAN_MOTION":13.18686581,"ECCENTRICITY":0.00018091,"INCLINATION":87.9229,"RA_OF_ASC_NODE":20.1398,"ARG_OF_PERICENTER":112.7875,"MEAN_ANOMALY":247.3448,"EPHEMERIS_TYPE":0,"CLASSIFICATION_TYPE":"U","NORAD_CAT_ID":50489,"ELEMENT_SET_NO":999,"REV_AT_EPOCH":19200,"BSTAR":0.00014159916,"MEAN_MOTION_DOT":6.9e-7,"MEAN_MOTION_DDOT":0},{"OBJECT_NAME":"ONEWEB-0413","OBJECT_ID":"2021-132X","EPOCH":"2025-11-04T05:04:28.413408","MEAN_MOTION":13.18687007,"ECCENTRICITY":0.00019522,"INCLINATION":87.922,"RA_OF_ASC_NODE":20.1554,"ARG_OF_PERICENTER":110.7893,"MEAN_ANOMALY":249.3448,"EPHEMERIS_TYPE":0,"CLASSIFICATION_TYPE":"U","NORAD_CAT_ID":50490,"ELEMENT_SET_NO":999,"REV_AT_EPOCH":19194,"BSTAR":6.1381149e-5,"MEAN_MOTION_DOT":3.7e-7,"MEAN_MOTION_DDOT":0},{"OBJECT_NAME":"ONEWEB-0414","OBJECT_ID":"2021-132Y","EPOCH":"2025-11-04T04:43:05.722464","MEAN_MOTION":13.18687885,"ECCENTRICITY":0.00017101,"INCLINATION":87.923,"RA_OF_ASC_NODE":20.118,"ARG_OF_PERICENTER":106.2958,"MEAN_ANOMALY":253.8362,"EPHEMERIS_TYPE":0,"CLASSIFICATION_TYPE":"U","NORAD_CAT_ID":50491,"ELEMENT_SET_NO":999,"REV_AT_EPOCH":19197,"BSTAR":-0.00028430794,"MEAN_MOTION_DOT":-9.9e-7,"MEAN_MOTION_DDOT":0},{"OBJECT_NAME":"ONEWEB-0417","OBJECT_ID":"2021-132Z","EPOCH":"2025-11-04T04:54:58.461984","MEAN_MOTION":13.18687494,"ECCENTRICITY":0.00016735,"INCLINATION":87.9233,"RA_OF_ASC_NODE":20.15,"ARG_OF_PERICENTER":94.8355,"MEAN_ANOMALY":265.2969,"EPHEMERIS_TYPE":0,"CLASSIFICATION_TYPE":"U","NORAD_CAT_ID":50492,"ELEMENT_SET_NO":999,"REV_AT_EPOCH":19195,"BSTAR":7.9501756e-5,"MEAN_MOTION_DOT":4.4e-7,"MEAN_MOTION_DDOT":0},{"OBJECT_NAME":"ONEWEB-0418","OBJECT_ID":"2021-132AA","EPOCH":"2025-11-04T06:58:17.962752","MEAN_MOTION":13.18686481,"ECCENTRICITY":0.00015221,"INCLINATION":87.9228,"RA_OF_ASC_NODE":20.1179,"ARG_OF_PERICENTER":87.1415,"MEAN_ANOMALY":272.9891,"EPHEMERIS_TYPE":0,"CLASSIFICATION_TYPE":"U","NORAD_CAT_ID":50493,"ELEMENT_SET_NO":999,"REV_AT_EPOCH":19202,"BSTAR":-9.6673586e-5,"MEAN_MOTION_DOT":-2.5e-7,"MEAN_MOTION_DDOT":0},{"OBJECT_NAME":"ONEWEB-0419","OBJECT_ID":"2021-132AB","EPOCH":"2025-11-04T03:46:05.518848","MEAN_MOTION":13.18686485,"ECCENTRICITY":0.00018504,"INCLINATION":87.9229,"RA_OF_ASC_NODE":20.1445,"ARG_OF_PERICENTER":90.7806,"MEAN_ANOMALY":269.3538,"EPHEMERIS_TYPE":0,"CLASSIFICATION_TYPE":"U","NORAD_CAT_ID":50494,"ELEMENT_SET_NO":999,"REV_AT_EPOCH":19192,"BSTAR":0.00016632732,"MEAN_MOTION_DOT":7.8e-7,"MEAN_MOTION_DDOT":0},{"OBJECT_NAME":"ONEWEB-0420","OBJECT_ID":"2021-132AC","EPOCH":"2025-11-04T06:34:44.215104","MEAN_MOTION":13.18686926,"ECCENTRICITY":0.0002099,"INCLINATION":87.9229,"RA_OF_ASC_NODE":20.1325,"ARG_OF_PERICENTER":107.9572,"MEAN_ANOMALY":252.179,"EPHEMERIS_TYPE":0,"CLASSIFICATION_TYPE":"U","NORAD_CAT_ID":50495,"ELEMENT_SET_NO":999,"REV_AT_EPOCH":19193,"BSTAR":9.980635e-6,"MEAN_MOTION_DOT":1.7e-7,"MEAN_MOTION_DDOT":0}]
